[Satellite]
VERSION=1.1
NAME=CZ-6A DEB
NICKNAME=CZ-6A DEB
TLE1=1 54304U 22151AX  22342.28067471  .00001039  00000+0  62302-3 0  9993
TLE2=2 54304  98.8349 346.9028 0046452   4.4689 355.6887 14.08638515  3133
STATUS=0
